NORAD_CAT_ID,OBJECT_NAME,OBJECT_TYPE,EPOCH,MEAN_MOTION,ECCENTRICITY,INCLINATION,RA_OF_ASC_NODE,ARG_OF_PERICENTER,MEAN_ANOMALY,BSTAR,MEAN_MOTION_DOT,MEAN_MOTION_DDOT,TLE_LINE0,TLE_LINE1,TLE_LINE2,SEMIMAJOR_AXIS,PERIOD,APOGEE,PERIGEE,DECAYED
53750.0,STARLINK-4612,PAYLOAD,2022-11-19 22:00:00,15.08854044,0.0001653,53.2165,277.2854,64.8665,134.6844,0.00072221,0.00011229,0.0,0 STARLINK-4612,1 53750U 22107BC  22323.91667824  .00011229  00000-0  72221-3 0  9999,2 53750  53.2165 277.2854 0001653  64.8665 134.6844 15.08854044  1302,6917.837,95.437,540.846,538.559,0.0
53750.0,STARLINK-4612,PAYLOAD,2022-11-20 14:00:01,15.08835414,0.0001523,53.2168,274.2926,56.4375,166.3312,-0.0016813,-0.00026943,0.0,0 STARLINK-4612,1 53750U 22107BC  22324.58334491 -.00026943  00000-0 -16813-2 0  9999,2 53750  53.2168 274.2926 0001523  56.4375 166.3312 15.08835414 11878,6917.894,95.438,540.813,538.706,0.0
53750.0,STARLINK-4612,PAYLOAD,2022-11-20 22:00:00,15.08835236,0.000153,53.2171,272.796,61.7923,172.5493,0.00055739,8.593e-05,0.0,0 STARLINK-4612,1 53750U 22107BC  22324.91667824  .00008593  00000-0  55739-3 0  9995,2 53750  53.2171 272.7960 0001530  61.7923 172.5493 15.08835236  1307,6917.895,95.438,540.818,538.702,0.0
53750.0,STARLINK-4612,PAYLOAD,2022-11-21 08:00:01,15.08829364,0.0001626999999999,53.217,270.927,51.4237,287.4008,0.0013969,0.00022007,0.0,0 STARLINK-4612,1 53750U 22107BC  22325.33334491  .00022007  00000-0  13969-2 0  9997,2 53750  53.2170 270.9270 0001627  51.4237 287.4008 15.08829364 11990,6917.913000000001,95.438,540.903,538.6519999999998,0.0
53750.0,STARLINK-4612,PAYLOAD,2022-11-21 14:00:01,15.08847119,0.0001479,53.2174,269.8033,55.9572,201.5648,-0.0021391,-0.00034177,0.0,0 STARLINK-4612,1 53750U 22107BC  22325.58334491 -.00034177  00000-0 -21391-2 0  9995,2 53750  53.2174 269.8033 0001479  55.9572 201.5648 15.08847119  1303,6917.859,95.437,540.747,538.7,0.0
53750.0,STARLINK-4612,PAYLOAD,2022-11-21 22:00:00,15.08839776,0.0001458,53.2176,268.3068,59.7367,209.3652,0.00024414,3.6e-05,0.0,0 STARLINK-4612,1 53750U 22107BC  22325.91667824  .00003600  00000-0  24414-3 0  9996,2 53750  53.2176 268.3068 0001458  59.7367 209.3652 15.08839776  1309,6917.880999999999,95.438,540.755,538.737,0.0
53750.0,STARLINK-4612,PAYLOAD,2022-11-22 14:00:01,15.08849388,0.0001539,53.2176,265.314,58.5399,233.8206,-0.0022004,-0.00035146,0.0,0 STARLINK-4612,1 53750U 22107BC  22326.58335648 -.00035146  00000-0 -22004-2 0  9990,2 53750  53.2176 265.3140 0001539  58.5399 233.8206 15.08849388  1306,6917.852,95.437,540.781,538.6519999999998,0.0
53750.0,STARLINK-4612,PAYLOAD,2022-11-22 22:00:00,15.088421599999998,0.0001587,53.2178,263.8178,62.9526,240.9271,-0.00035284,-5.899e-05,0.0,0 STARLINK-4612,1 53750U 22107BC  22326.91667824 -.00005899  00000-0 -35284-3 0  9998,2 53750  53.2178 263.8178 0001587  62.9526 240.9271 15.08842160  1308,6917.874,95.437,540.837,538.641,0.0
53750.0,STARLINK-4612,PAYLOAD,2022-11-23 08:00:01,15.08841657,0.0001654,53.2173,261.9487,53.7203,354.65,-0.00054335,-8.925e-05,0.0,0 STARLINK-4612,1 53750U 22107BC  22327.33334491 -.00008925  00000-0 -54335-3 0  9997,2 53750  53.2173 261.9487 0001654  53.7203 354.6500 15.08841657 12298,6917.875,95.437,540.885,538.596,0.0
53750.0,STARLINK-4612,PAYLOAD,2022-11-23 14:00:01,15.0882315,0.000151,53.2175,260.8251,60.2619,266.811,-8.2889e-05,-1.606e-05,0.0,0 STARLINK-4612,1 53750U 22107BC  22327.58334491 -.00001606  00000-0 -82889-4 0  9999,2 53750  53.2175 260.8251 0001510  60.2619 266.8110 15.08823150  1301,6917.932,95.439,540.842,538.752,0.0
53750.0,STARLINK-4612,PAYLOAD,2022-11-23 22:00:00,15.08841145,0.0001516,53.2176,259.3292,62.0966,276.5417,-0.00095035,-0.00015381,0.0,0 STARLINK-4612,1 53750U 22107BC  22327.91667824 -.00015381  00000-0 -95035-3 0  9996,2 53750  53.2176 259.3292 0001516  62.0966 276.5417 15.08841145  1303,6917.877,95.437,540.7909999999998,538.693,0.0
53750.0,STARLINK-4612,PAYLOAD,2022-11-24 14:00:01,15.08831843,0.0001531999999999,53.217,256.3364,61.6588,300.1636,0.0012239,0.0001924,0.0,0 STARLINK-4612,1 53750U 22107BC  22328.58334491  .00019240  00000-0  12239-2 0  9991,2 53750  53.2170 256.3364 0001532  61.6588 300.1636 15.08831843  1308,6917.905,95.438,540.83,538.71,0.0
53750.0,STARLINK-4612,PAYLOAD,2022-11-24 22:00:00,15.08874003,0.0001557,53.217,254.8407,62.4432,310.9642,-0.0028824,-0.00045912,0.0,0 STARLINK-4612,1 53750U 22107BC  22328.91667824 -.00045912  00000-0 -28824-2 0  9991,2 53750  53.2170 254.8407 0001557  62.4432 310.9642 15.08874003  1304,6917.776,95.435,540.719,538.564,0.0
53750.0,STARLINK-4612,PAYLOAD,2022-11-25 14:00:01,15.08825737,0.0001495,53.2165,251.8476,60.5956,336.0254,0.0019494,0.00030861,0.0,0 STARLINK-4612,1 53750U 22107BC  22329.58334491  .00030861  00000-0  19494-2 0  9994,2 53750  53.2165 251.8476 0001495  60.5956 336.0254 15.08825737 12638,6917.924,95.438,540.823,538.755,0.0
53750.0,STARLINK-4612,PAYLOAD,2022-11-25 22:00:00,15.08869059,0.0001585,53.2164,250.3519,61.1609,347.0486,-0.00098717,-0.00015977,0.0,0 STARLINK-4612,1 53750U 22107BC  22329.91667824 -.00015977  00000-0 -98717-3 0  9999,2 53750  53.2164 250.3519 0001585  61.1609 347.0486 15.08869059  1307,6917.792,95.436,540.753,538.56,0.0
53750.0,STARLINK-4612,PAYLOAD,2022-11-26 14:00:01,15.08841989,0.0001515,53.2162,247.3585,58.682,12.7833,0.00092624,0.00014485,0.0,0 STARLINK-4612,1 53750U 22107BC  22330.58334491  .00014485  00000-0  92624-3 0  9997,2 53750  53.2162 247.3585 0001515  58.6820  12.7833 15.08841989 12781,6917.874,95.437,540.7869999999998,538.691,0.0
53750.0,STARLINK-4612,PAYLOAD,2022-11-26 22:00:00,15.08863396,0.0001675,53.2161,245.8629,59.768,23.298,-0.0041604999999999,-0.00065939,0.0,0 STARLINK-4612,1 53750U 22107BC  22330.91667824 -.00065939  00000-0 -41605-2 0  9997,2 53750  53.2161 245.8629 0001675  59.7680  23.2980 15.08863396  1307,6917.809,95.436,540.8330000000002,538.515,0.0
53750.0,STARLINK-4612,PAYLOAD,2022-11-27 06:00:00,15.08798168,0.0001739,53.2159,244.3676,52.6849,41.9831,0.0027053,0.0004298,0.0,0 STARLINK-4612,1 53750U 22107BC  22331.25001157  .00042980  00000-0  27053-2 0  9996,2 53750  53.2159 244.3676 0001739  52.6849  41.9831 15.08798168 12881,6918.0080000000025,95.44,541.076,538.67,0.0
53750.0,STARLINK-4612,PAYLOAD,2022-11-27 14:00:01,15.08801598,0.0001605,53.2161,242.8695,58.8933,47.3441,0.0027107,0.00043071,0.0,0 STARLINK-4612,1 53750U 22107BC  22331.58334491  .00043071  00000-0  27107-2 0  9994,2 53750  53.2161 242.8695 0001605  58.8933  47.3441 15.08801598  1306,6917.998000000001,95.44,540.9730000000002,538.752,0.0
53750.0,STARLINK-4612,PAYLOAD,2022-11-27 22:00:00,15.08847606,0.0001730999999999,53.2161,241.3739,58.4846,59.3155,-0.0016299,-0.0002614,0.0,0 STARLINK-4612,1 53750U 22107BC  22331.91667824 -.00026140  00000-0 -16299-2 0  9990,2 53750  53.2161 241.3739 0001731  58.4846  59.3155 15.08847606  1303,6917.857,95.437,540.92,538.525,0.0
53750.0,STARLINK-4612,PAYLOAD,2022-11-28 00:00:00,15.08844212,0.0001773,53.216,241.0003,56.3616,154.3385,-0.0017500999999999,-0.00028036,0.0,0 STARLINK-4612,1 53750U 22107BC  22332.00001157 -.00028036  00000-0 -17501-2 0  9995,2 53750  53.2160 241.0003 0001773  56.3616 154.3385 15.08844212 12999,6917.868,95.437,540.9590000000002,538.506,0.0
53750.0,STARLINK-4612,PAYLOAD,2022-11-28 14:00:01,15.08807812,0.000159,53.2162,238.3803,57.8208,83.1696,0.003126,0.0004977,0.0,0 STARLINK-4612,1 53750U 22107BC  22332.58334491  .00049770  00000-0  31260-2 0  9992,2 53750  53.2162 238.3803 0001590  57.8208  83.1696 15.08807812 13088,6917.979,95.44,540.944,538.744,0.0
53750.0,STARLINK-4612,PAYLOAD,2022-11-28 22:00:01,15.08851233,0.0001716,53.2163,236.8848,57.0749,95.5511,-0.0011139,-0.00017978,0.0,0 STARLINK-4612,1 53750U 22107BC  22332.91668981 -.00017978  00000-0 -11139-2 0  9993,2 53750  53.2163 236.8848 0001716  57.0749  95.5511 15.08851233  1304,6917.846,95.437,540.898,538.524,0.0
53750.0,STARLINK-4612,PAYLOAD,2022-11-29 06:00:00,15.08853137,0.0001766,53.2161,235.3891,51.5441,112.6194,-0.0010351,-0.0001673,0.0,0 STARLINK-4612,1 53750U 22107BC  22333.25001157 -.00016730  00000-0 -10351-2 0  9997,2 53750  53.2161 235.3891 0001766  51.5441 112.6194 15.08853137 13189,6917.84,95.437,540.927,538.484,0.0
53750.0,STARLINK-4612,PAYLOAD,2022-11-29 14:00:01,15.08822789,0.0001599,53.2163,233.891,58.3528,117.4844,8.839e-05,1.118e-05,0.0,0 STARLINK-4612,1 53750U 22107BC  22333.58335648  .00001118  00000-0  88390-4 0  9990,2 53750  53.2163 233.8910 0001599  58.3528 117.4844 15.08822789  1306,6917.933000000001,95.439,540.904,538.692,0.0
53750.0,STARLINK-4612,PAYLOAD,2022-11-29 22:00:00,15.08822636,0.0001764999999999,53.2164,232.3957,58.2572,129.0949,-0.00099158,-0.00016027,0.0,0 STARLINK-4612,1 53750U 22107BC  22333.91667824 -.00016027  00000-0 -99158-3 0  9991,2 53750  53.2164 232.3957 0001765  58.2572 129.0949 15.08822636  1301,6917.933000000001,95.439,541.019,538.577,0.0
53750.0,STARLINK-4612,PAYLOAD,2022-11-30 14:00:01,15.08807295,0.0001655,53.2163,229.4015,62.5879,147.976,0.0031454,0.00050082,0.0,0 STARLINK-4612,1 53750U 22107BC  22334.58335648  .00050082  00000-0  31454-2 0  9992,2 53750  53.2163 229.4015 0001655  62.5879 147.9760 15.08807295 13383,6917.98,95.44,540.99,538.7,0.0
53750.0,STARLINK-4612,PAYLOAD,2022-11-30 22:00:00,15.08852544,0.0001736,53.217,227.9059,62.7475,159.3302,-0.0016092,-0.00025816,0.0,0 STARLINK-4612,1 53750U 22107BC  22334.91667824 -.00025816  00000-0 -16092-2 0  9993,2 53750  53.2170 227.9059 0001736  62.7475 159.3302 15.08852544  1301,6917.842,95.437,540.908,538.506,0.0
53750.0,STARLINK-4612,PAYLOAD,2022-12-01 06:00:00,15.088568099999998,0.0001773,53.216,226.4106,55.9709,177.6924,-0.0028923,-0.00046047,0.0,0 STARLINK-4612,1 53750U 22107BC  22335.25001157 -.00046047  00000-0 -28923-2 0  9997,2 53750  53.2160 226.4106 0001773  55.9709 177.6924 15.08856810 13487,6917.829000000002,95.436,540.9209999999998,538.467,0.0
